<?xml version="1.0" encoding="UTF-8"?>
<kml xmlns="http://www.opengis.net/kml/2.2" xmlns:gx="http://www.google.com/kml/ext/2.2" xmlns:kml="http://www.opengis.net/kml/2.2" xmlns:atom="http://www.w3.org/2005/Atom">
<Document>
	<name>T01-Ruta Expres.kml</name>
	<StyleMap id="msn_ylw-pushpin3">
		<Pair>
			<key>normal</key>
			<styleUrl>#sn_ylw-pushpin11</styleUrl>
		</Pair>
		<Pair>
			<key>highlight</key>
			<styleUrl>#sh_ylw-pushpin9</styleUrl>
		</Pair>
	</StyleMap>
	<Style id="sh_ylw-pushpin9">
		<IconStyle>
			<scale>1.3</scale>
			<Icon>
				<href>https://maps.google.com/mapfiles/kml/pushpin/ylw-pushpin.png</href>
			</Icon>
			<hotSpot x="20" y="2" xunits="pixels" yunits="pixels"/>
		</IconStyle>
		<LineStyle>
			<color>ff00ff00</color>
			<width>4</width>
		</LineStyle>
	</Style>
	<Style id="sn_ylw-pushpin11">
		<IconStyle>
			<scale>1.1</scale>
			<Icon>
				<href>https://maps.google.com/mapfiles/kml/pushpin/ylw-pushpin.png</href>
			</Icon>
			<hotSpot x="20" y="2" xunits="pixels" yunits="pixels"/>
		</IconStyle>
		<LineStyle>
			<color>ff00ff00</color>
			<width>4</width>
		</LineStyle>
	</Style>
	<Folder id="2810060C3030A9B3310D">
		<name>T01-Ruta Expres</name>
		<visibility>0</visibility>
		<Folder id="0974536FD130A9B34564">
			<name>Recorrido</name>
			<visibility>0</visibility>
			<Placemark id="0E1608823F30A9B34E05">
				<name>RUTA TRONCAL CENTRO-TÉLLEZ</name>
				<visibility>0</visibility>
				<description>Servicio Expres T02</description>
				<styleUrl>#msn_ylw-pushpin3</styleUrl>
				<LineString>
					<tessellate>1</tessellate>
					<coordinates>
						-98.74595227340394,20.11558763221797,0 -98.74551974386816,20.11560962120013,0 -98.74470371613931,20.11565553310982,0 -98.74405566663033,20.11570812454347,0 -98.74356772658757,20.11574291703093,0 -98.74339264662623,20.11580370148047,0 -98.74328125756138,20.11585018813379,0 -98.74316063299693,20.11589741043752,0 -98.74303206749801,20.11596718704981,0 -98.74294045443474,20.11600122772914,0 -98.74225425704134,20.11645244620359,0 -98.74138548316023,20.11706757591449,0 -98.74029117973768,20.1178158559474,0 -98.73945185427826,20.11843691172116,0 -98.73893394364059,20.11877387330366,0 -98.73875939093692,20.11891316688453,0 -98.73850350981179,20.11914106936781,0 -98.73801347889852,20.11953234748832,0 -98.73750211711653,20.11990798353923,0 -98.73722176361801,20.1200997984187,0 -98.73693965009903,20.12029735048485,0 -98.73663621517775,20.12047393539903,0 -98.73630032673464,20.12066808599775,0 -98.73611865737142,20.12063764394727,0 -98.73593943901255,20.12077996366038,0 -98.73591470990502,20.12097539953609,0 -98.73502218557125,20.12158235682138,0 -98.73466662006777,20.1217981401352,0 -98.7347607308247,20.12198194733247,0 -98.73529949008366,20.1227143053294,0 -98.73536924184175,20.12286044376776,0 -98.73532551681481,20.12311014939551,0 -98.73542531759188,20.12325955720781,0 -98.73576347362088,20.12339389797521,0 -98.73629273138597,20.12352641079758,0 -98.73652987337381,20.12346041688058,0 -98.73668450083487,20.12322661540545,0 -98.73680754099253,20.12305398362031,0 -98.73700142998847,20.12292542181724,0 -98.73806132017944,20.12218886992826,0 -98.73924026329601,20.12125051971379,0 -98.7405187192248,20.1204437814333,0 -98.74210373164513,20.11931593567392,0 -98.74344563179949,20.11838937888697,0 -98.74402646096637,20.11792365302541,0 -98.74473429073666,20.11737575614754,0 -98.74524126080755,20.11697357853424,0 -98.74591250026178,20.11646476351366,0 -98.74609854488816,20.11640437575024,0 -98.74630414899669,20.11636805006924,0 -98.74643659311464,20.11635768241641,0 -98.74660438221198,20.11631610491228,0 -98.7466905981085,20.11611216748369,0 -98.74672696452292,20.11599145471854,0 -98.74686603358329,20.1158783948018,0 -98.7469734410069,20.11578490708311,0 -98.74723430854256,20.11559552073192,0 -98.74817175354585,20.11482345795359,0 -98.74900985035238,20.11431274660099,0 -98.75163689058563,20.11212865072847,0 -98.75287740895769,20.1110262799386,0 -98.75628027878926,20.10749565432434,0 -98.75634076734845,20.10730282537365,0 -98.75627391866256,20.1071174861792,0 -98.75587750891188,20.10690051300604,0 -98.75505535705233,20.10671451139244,0 -98.75316778048408,20.1064248757373,0 -98.75239125829596,20.10625495970471,0 -98.75147412515221,20.10611468036831,0 -98.75100372868454,20.10604569457332,0 -98.75091562522942,20.10608607551346,0 -98.75095464027522,20.10618156302918,0 -98.75129817005049,20.10623850396757,0 -98.75207347079092,20.10639210968534,0 -98.75628443169057,20.10703238821529,0 -98.75673833390589,20.10691856088163,0 -98.75725399435207,20.10652812023735,0 -98.75863781031295,20.10534131025447,0 -98.76234802734095,20.10172166188957,0 -98.76436581828362,20.10006747263362,0 -98.76657840280801,20.09792071402007,0 -98.76915585875997,20.09531718643619,0 -98.76997982183354,20.0943439000459,0 -98.77068025370487,20.09332019526831,0 -98.77084684262486,20.09233734249511,0 -98.77119341467704,20.09028894683207,0 -98.77139289817158,20.08902982731842,0 -98.77169813853277,20.08731709448456,0 -98.77187249851698,20.08612874479954,0 -98.77212943795311,20.08513509388191,0 -98.77345777246333,20.08229085402891,0 -98.77481734446046,20.07929661824042,0 -98.7762628433465,20.07632923602385,0 -98.77794188838024,20.07318874541267,0 -98.78358546345051,20.06302070370588,0 -98.78605569088255,20.05791266158678,0 -98.79030025202505,20.04970968262545,0 -98.79238987301915,20.04572378363096,0 -98.79376192392279,20.04322163283781,0 -98.79489874690334,20.04143865264072,0 -98.79689368519571,20.03852544206166,0 -98.79874676732832,20.03579417946618,0 -98.80119929336389,20.03299334426349,0 -98.80342513472094,20.03039550891617,0 -98.80406497309136,20.02967840148238,0 -98.80608114927597,20.02736396976638,0 -98.8079315037003,20.02546296470765,0 -98.81024996756439,20.02357840925997,0 -98.81084987925631,20.02299332684109,0 -98.81095183213601,20.02248304363691,0 -98.80559135493347,20.01345929754893,0 -98.80435302482714,20.01171055305083,0 -98.80394835243821,20.01190690947873,0 -98.80362581906471,20.01215716738199,0 -98.80386154738821,20.01261588701673,0 -98.80426268448041,20.01268486978627,0 -98.80505517148909,20.01283725299118,0 -98.80569823525134,20.01391419374644,0 -98.80857139893635,20.01892250684048,0 -98.8095577426554,20.02066663567829,0 -98.81039959289366,20.02203242792253,0 -98.81061518168161,20.02267638432627,0 -98.81014319855726,20.02333809953617,0 -98.80732983321364,20.02554077447259,0 -98.8038887965719,20.02943109099679,0 -98.79835547066301,20.03579436089019,0 -98.79478647854442,20.04094624284373,0 -98.79299585765942,20.04376968823408,0 -98.79184713870568,20.04598463411204,0 -98.78602789604096,20.05698407758595,0 -98.78510485408879,20.05869936461524,0 -98.77947840851172,20.06939834333144,0 -98.77741473132595,20.07319541847484,0 -98.77417744158055,20.07980438066626,0 -98.77330267143644,20.08179361138203,0 -98.77174149279739,20.08522537165976,0 -98.77097280409035,20.08682165382724,0 -98.77091441301772,20.08755615950924,0 -98.77095474707374,20.08929913193478,0 -98.77046286499692,20.09268691680883,0 -98.77015920740992,20.09341446297719,0 -98.76905116310984,20.09486907981601,0 -98.76783451933363,20.09616696653572,0 -98.76445262471439,20.09931972631833,0 -98.76190378429746,20.10169797491274,0 -98.756533576021,20.10687184352191,0 -98.75384167008502,20.10637392442995,0 -98.75100904193108,20.10598980076322,0 -98.75089932108359,20.10602097977985,0 -98.75086975783324,20.10620670983927,0 -98.75127794872543,20.10628111536573,0 -98.75319883042793,20.10653965811982,0 -98.75523287396304,20.10685958373321,0 -98.75593079268555,20.10698162442836,0 -98.75616462025094,20.10714245482913,0 -98.7561526885633,20.10738837370926,0 -98.75466353213547,20.10884929071645,0 -98.75273898948059,20.11074905712546,0 -98.75065781163008,20.11258454191071,0 -98.74862538222543,20.11413496499098,0 -98.74727750753794,20.11529971280037,0 -98.74663189579529,20.11574306374029,0 -98.74649896481607,20.11573307257974,0 -98.74626475391005,20.11566542333543,0 -98.74595227340394,20.11558763221797,0 
					</coordinates>
				</LineString>
			</Placemark>
		</Folder>
		<atom:link rel="app" href="https://www.google.com/earth/about/versions/#earth-pro" title="Google Earth Pro 7.3.6.10201"></atom:link>
	</Folder>
</Document>
</kml>
