<?xml version="1.0" encoding="UTF-8"?>
<kml xmlns="http://www.opengis.net/kml/2.2" xmlns:gx="http://www.google.com/kml/ext/2.2" xmlns:kml="http://www.opengis.net/kml/2.2" xmlns:atom="http://www.w3.org/2005/Atom">
<Document>
	<name>T02-Ruta Expres.kml</name>
	<StyleMap id="msn_ylw-pushpin3">
		<Pair>
			<key>normal</key>
			<styleUrl>#sn_ylw-pushpin11</styleUrl>
		</Pair>
		<Pair>
			<key>highlight</key>
			<styleUrl>#sh_ylw-pushpin9</styleUrl>
		</Pair>
	</StyleMap>
	<Style id="sh_ylw-pushpin9">
		<IconStyle>
			<scale>1.3</scale>
			<Icon>
				<href>https://maps.google.com/mapfiles/kml/pushpin/ylw-pushpin.png</href>
			</Icon>
			<hotSpot x="20" y="2" xunits="pixels" yunits="pixels"/>
		</IconStyle>
		<LineStyle>
			<color>ff00ff00</color>
			<width>4</width>
		</LineStyle>
	</Style>
	<Style id="sn_ylw-pushpin11">
		<IconStyle>
			<scale>1.1</scale>
			<Icon>
				<href>https://maps.google.com/mapfiles/kml/pushpin/ylw-pushpin.png</href>
			</Icon>
			<hotSpot x="20" y="2" xunits="pixels" yunits="pixels"/>
		</IconStyle>
		<LineStyle>
			<color>ff00ff00</color>
			<width>4</width>
		</LineStyle>
	</Style>
	<Folder id="1D2F50DFAA30A9B3310D">
		<name>T02-Ruta Expres</name>
		<visibility>0</visibility>
		<Folder>
			<name>Recorrido</name>
			<visibility>0</visibility>
			<Placemark>
				<name>RUTA TRONCAL CENTRO-TÉLLEZ</name>
				<visibility>0</visibility>
				<description>Servicio Expres T02</description>
				<styleUrl>#msn_ylw-pushpin3</styleUrl>
				<LineString>
					<tessellate>1</tessellate>
					<coordinates>
						-98.80348266204561,20.02995957239039,0 -98.80277399025744,20.03071934874136,0 -98.80231167038269,20.03125779059486,0 -98.80198483175602,20.03164737270438,0 -98.80133133300464,20.03236286591427,0 -98.80051744268829,20.03327856587103,0 -98.79957463295906,20.0343160781571,0 -98.79863583590655,20.03542242634669,0 -98.79823148674485,20.03591630328278,0 -98.79756734730744,20.036852404977,0 -98.79664355424048,20.03820484531887,0 -98.79608681031301,20.03897319917849,0 -98.79522751425409,20.04023265275883,0 -98.79423661317104,20.04164568443641,0 -98.7933341190725,20.04298772043532,0 -98.7928386963453,20.04378396691941,0 -98.79225209901763,20.04487589053281,0 -98.79189655605272,20.04559306153893,0 -98.79159085480512,20.04616857736507,0 -98.79095993902479,20.04742787783691,0 -98.79040132108148,20.0485155387657,0 -98.78986851437023,20.04947713579208,0 -98.78901529994546,20.05114736437941,0 -98.78846138106209,20.05215815279189,0 -98.78789669637573,20.05323528073776,0 -98.78717544323916,20.05460988017583,0 -98.78659651690603,20.05574510759854,0 -98.78612464224916,20.05661860404879,0 -98.78561304697278,20.05757906020726,0 -98.78511357379828,20.05857473949966,0 -98.78427649359763,20.06019313657896,0 -98.78334663736699,20.061980906657,0 -98.78254558035925,20.06345906407231,0 -98.78165050436395,20.06512814328714,0 -98.78141213675454,20.06568906684694,0 -98.78104298488893,20.06639837619972,0 -98.78051724366867,20.0673878041697,0 -98.78012471281733,20.06815535320943,0 -98.77922761778082,20.06977500717222,0 -98.77865658605783,20.07096674792046,0 -98.77824660860897,20.07178750773472,0 -98.77781748974171,20.07257165530111,0 -98.77664948259746,20.07457857817608,0 -98.77638210183801,20.075157374577,0 -98.77613603070128,20.07559483374724,0 -98.77565037584556,20.07660654448064,0 -98.77467435309964,20.07861157456264,0 -98.77409849083845,20.07984019443418,0 -98.7734022370106,20.08130659466264,0 -98.77317428814668,20.08192522280911,0 -98.773120688437,20.08201597901237,0 -98.773029059631,20.08218500454532,0 -98.77295751495076,20.08229581356677,0 -98.77287563440107,20.082475851782,0 -98.77266051068329,20.08290882359778,0 -98.77246439814667,20.08335383457036,0 -98.77197722500372,20.08433039426292,0 -98.77127587353606,20.08581530828759,0 -98.77104119553474,20.08634360076225,0 -98.77091498202108,20.08659923397799,0 -98.77077664060815,20.08701041667827,0 -98.7707315876056,20.08713711791874,0 -98.77069546787966,20.08761397962834,0 -98.77069671136083,20.08779178409215,0 -98.77070742851375,20.08794000269634,0 -98.77071996476241,20.08826054349551,0 -98.77078181770214,20.08892207971529,0 -98.77084516876855,20.08954092350444,0 -98.77089468301146,20.09003220417865,0 -98.77089682117958,20.09019458967853,0 -98.77085172893632,20.09038664427911,0 -98.77073688163769,20.09104638782822,0 -98.77065172828763,20.09159762344996,0 -98.77054289883083,20.0922970724977,0 -98.77047860454724,20.09251571169416,0 -98.77042395760741,20.09265150330569,0 -98.77036872227659,20.09288695428824,0 -98.77025235079471,20.09336540019396,0 -98.77020725336723,20.09344286646838,0 -98.77018756885937,20.09350192529711,0 -98.7701741114028,20.09356286329797,0 -98.77013641279365,20.09361175105681,0 -98.77010946562959,20.09365785436083,0 -98.76993150721927,20.09399537315249,0 -98.76940823836146,20.09453245077594,0 -98.76874618997233,20.09526303106219,0 -98.76842511429854,20.09560530456416,0 -98.76829911649774,20.09574003670142,0 -98.76816976693298,20.09588011715375,0 -98.76777451292325,20.09626309251836,0 -98.76735067655181,20.09666412459325,0 -98.7671127975886,20.09687475193409,0 -98.76702865170722,20.09695552380521,0 -98.76693101337534,20.09703290015399,0 -98.7668444516208,20.09710105232736,0 -98.76669259923106,20.09719567381853,0 -98.76637857777878,20.09746786064704,0 -98.76608443893195,20.09772843697465,0 -98.76603239350263,20.09777757792874,0 -98.76597870911472,20.0978438321034,0 -98.76589675519213,20.09792741514089,0 -98.76584257293693,20.09797384900754,0 -98.76580113131222,20.09801259013482,0 -98.76568549792877,20.09811725502359,0 -98.76513217552186,20.09866504749852,0 -98.76470164694365,20.09912414889308,0 -98.76413312753816,20.09966750216589,0 -98.76394720155474,20.09983791225297,0 -98.76365074242619,20.10011010388936,0 -98.76332658250818,20.10039380750411,0 -98.76314422248343,20.10058600748511,0 -98.76294483447327,20.10079140392871,0 -98.76245385868403,20.10123167844112,0 -98.76159316266305,20.10205160514704,0 -98.76099268972325,20.10265915232826,0 -98.76064256316947,20.10297342945477,0 -98.76023438171295,20.10338288114832,0 -98.75991886203231,20.10372971733886,0 -98.75932020860772,20.10434228641257,0 -98.7586070189884,20.10502228414729,0 -98.75791155135147,20.10568665135376,0 -98.75721378185732,20.10635255029017,0 -98.756969983958,20.1065874045241,0 -98.756803247276,20.10678033090094,0 -98.75646026540412,20.10712526696187,0 -98.7563375045813,20.10722508627781,0 -98.75593197638662,20.10758682513208,0 -98.75528553805039,20.10818911597497,0 -98.75451019168329,20.10898122153313,0 -98.75374797059487,20.10977070226879,0 -98.75310181594948,20.11030623297239,0 -98.75266568143931,20.11075386947637,0 -98.75260301373784,20.11080411072018,0 -98.75253837326264,20.11086179398741,0 -98.75247952186838,20.11091674942565,0 -98.75241702715857,20.11097963086515,0 -98.75220782285656,20.11119751809465,0 -98.75198092814678,20.11142625489028,0 -98.75156586426866,20.11173719510083,0 -98.75119461855593,20.11206829906687,0 -98.75087933205143,20.11239645274134,0 -98.75058462684191,20.1127351396241,0 -98.75046803350514,20.11284331323259,0 -98.75034857033606,20.11294758300721,0 -98.75014658751155,20.11310828094889,0 -98.74948965711685,20.11360469901333,0 -98.74864340079758,20.1142649381558,0 -98.74782403932663,20.11491528603017,0 -98.74718990299374,20.1153979481995,0 -98.74654599134298,20.1158745657044,0 -98.74648815829126,20.11586780035623,0 -98.74642796701959,20.11582913520698,0 -98.74635750679745,20.11579229985201,0 -98.7462751176099,20.11575067313925,0 -98.74619723536664,20.11572048523165,0 -98.74610309980959,20.1156728543307,0 -98.74598476889847,20.11561936943508,0 -98.7458326869567,20.11559228149629,0 -98.74551974386816,20.11560962120013,0 -98.74470371613931,20.11565553310982,0 -98.74405566663033,20.11570812454347,0 -98.74356772658757,20.11574291703093,0 -98.74339264662623,20.11580370148047,0 -98.74328125756138,20.11585018813379,0 -98.74316063299693,20.11589741043752,0 -98.74303206749801,20.11596718704981,0 -98.74294045443474,20.11600122772914,0 -98.74225425704134,20.11645244620359,0 -98.74138548316023,20.11706757591449,0 -98.74029117973768,20.1178158559474,0 -98.73945185427826,20.11843691172116,0 -98.73893394364059,20.11877387330366,0 -98.73875939093692,20.11891316688453,0 -98.73850350981179,20.11914106936781,0 -98.73801347889852,20.11953234748832,0 -98.73750211711653,20.11990798353923,0 -98.73722176361801,20.1200997984187,0 -98.73693965009903,20.12029735048485,0 -98.73663621517775,20.12047393539903,0 -98.73630032673464,20.12066808599775,0 -98.73611865737142,20.12063764394727,0 -98.73593943901255,20.12077996366038,0 -98.73591470990502,20.12097539953609,0 -98.73502218557125,20.12158235682138,0 -98.73480511990012,20.1217302639504,0 -98.73462277103452,20.12183016029518,0 -98.7353680444125,20.12274056031991,0 -98.73538323411367,20.12305221237321,0 -98.73548137617605,20.12330607141313,0 -98.73616398794212,20.12350317772963,0 -98.7364517097524,20.12355454157678,0 -98.73658666542568,20.12345862333477,0 -98.73668161881101,20.12329562845944,0 -98.73676544777879,20.12310556480431,0 -98.73692931708908,20.12297335076238,0 -98.73739165537489,20.12262944094614,0 -98.73924026329601,20.12125051971379,0 -98.7405187192248,20.1204437814333,0 -98.74210373164513,20.11931593567392,0 -98.74344563179949,20.11838937888697,0 -98.74402646096637,20.11792365302541,0 -98.74473429073666,20.11737575614754,0 -98.74524126080755,20.11697357853424,0 -98.74591250026178,20.11646476351366,0 -98.74609854488816,20.11640437575024,0 -98.74630414899669,20.11636805006924,0 -98.74643659311464,20.11635768241641,0 -98.74660438221198,20.11631610491228,0 -98.7466905981085,20.11611216748369,0 -98.74672696452292,20.11599145471854,0 -98.74686603358329,20.1158783948018,0 -98.7469734410069,20.11578490708311,0 -98.74723430854256,20.11559552073192,0 -98.74817175354585,20.11482345795359,0 -98.74900985035238,20.11431274660099,0 -98.75163689058563,20.11212865072847,0 -98.75282998682773,20.11105257243537,0 -98.75863781031295,20.10534131025447,0 -98.76234802734095,20.10172166188957,0 -98.76436581828362,20.10006747263362,0 -98.76657840280801,20.09792071402007,0 -98.76915585875997,20.09531718643619,0 -98.76997982183354,20.0943439000459,0 -98.77068025370487,20.09332019526831,0 -98.77084684262486,20.09233734249511,0 -98.77119341467704,20.09028894683207,0 -98.77139289817158,20.08902982731842,0 -98.77169813853277,20.08731709448456,0 -98.77187249851698,20.08612874479954,0 -98.77212943795311,20.08513509388191,0 -98.77345777246333,20.08229085402891,0 -98.77481734446046,20.07929661824042,0 -98.7762628433465,20.07632923602385,0 -98.77794188838024,20.07318874541267,0 -98.78358546345051,20.06302070370588,0 -98.78605569088255,20.05791266158678,0 -98.79030025202505,20.04970968262545,0 -98.79238987301915,20.04572378363096,0 -98.79376192392279,20.04322163283781,0 -98.79489874690334,20.04143865264072,0 -98.79689368519571,20.03852544206166,0 -98.79874676732832,20.03579417946618,0 -98.80119929336389,20.03299334426349,0 -98.80342513472094,20.03039550891617,0 -98.80406497309136,20.02967840148238,0 -98.80491902731875,20.02880055311141,0 -98.8059489099104,20.02747197499976,0 -98.80621154360411,20.02699676328294,0 -98.80620563637622,20.02685227799688,0 -98.80606266505042,20.02687932313306,0 -98.8057129088465,20.02725679408622,0 -98.80477468410515,20.02851152357211,0 -98.8039501921505,20.02944125777019,0 -98.80348266204561,20.02995957239039,0 
					</coordinates>
				</LineString>
			</Placemark>
		</Folder>
		<atom:link rel="app" href="https://www.google.com/earth/about/versions/#earth-pro" title="Google Earth Pro 7.3.6.10201"></atom:link>
	</Folder>
</Document>
</kml>
